GPS BIIR-2  (PRN 13)    
1 24876C 97035A   23170.70645833 -.00000000  00000-0  00000-0 0  1702
2 24876  55.5736 141.3381 0068951  50.8585 231.1832  2.00564406    19
GPS BIIR-4  (PRN 20)    
1 26360C 00025A   23170.70645833 -.00000000  00000-0  00000-0 0  1705
2 26360  54.3658  63.7441 0040924 198.0891 170.2706  2.00576487    13
GPS BIIR-8  (PRN 16)    
1 27663C 03005A   23170.70645833  .00000000  00000-0  00000-0 0  1702
2 27663  55.2842 258.4610 0131338  44.5947 304.9742  2.00570561    16
GPS BIIR-9  (PRN 21)    
1 27704C 03010A   23170.70645833 -.00000000  00000-0  00000-0 0  1705
2 27704  55.1101   8.4616 0248354 316.9182 249.8273  2.00571695    17
GPS BIIR-11 (PRN 19)    
1 28190C 04009A   23170.70645833  .00000000  00000-0  00000-0 0  1703
2 28190  55.7513 319.5117 0092999 134.4756  11.7406  2.00569780    10
GPS BIIR-13 (PRN 02)    
1 28474C 04045A   23170.70645833 -.00000000  00000-0  00000-0 0  1709
2 28474  55.4370   8.7572 0161368 280.7379 278.1396  2.00577726    14
GPS BIIRM-1 (PRN 17)    
1 28874C 05038A   23170.70645833  .00000000  00000-0  00000-0 0  1705
2 28874  55.8043 316.9611 0137124 279.2284 247.6723  2.00551564    15
GPS BIIRM-2 (PRN 31)    
1 29486C 06042A   23170.70645833  .00000000  00000-0  00000-0 0  1701
2 29486  54.6888 194.6937 0102032  30.0072  37.9158  2.00574548    18
GPS BIIRM-3 (PRN 12)    
1 29601C 06052A   23170.70645833  .00000000  00000-0  00000-0 0  1701
2 29601  55.3029 257.4160 0085220  78.8422  47.5051  2.00573569    17
GPS BIIRM-4 (PRN 15)    
1 32260C 07047A   23170.70645833 -.00000000  00000-0  00000-0 0  1702
2 32260  53.4359 125.3185 0148061  68.7394 196.5459  2.00555892    12
GPS BIIRM-5 (PRN 29)    
1 32384C 07062A   23170.70645833  .00000000  00000-0  00000-0 0  1705
2 32384  55.9340 317.7711 0024560 143.5683 250.0852  2.00555113    17
GPS BIIRM-6 (PRN 07)    
1 32711C 08012A   23170.70645833  .00000000  00000-0  00000-0 0  1705
2 32711  54.4552 193.5425 0176078 235.0782  88.2689  2.00555504    14
GPS BIIRM-8 (PRN 05)    
1 35752C 09043A   23170.70645833 -.00000000  00000-0  00000-0 0  1709
2 35752  55.3676  70.7819 0058040  65.7823 275.2591  2.00562686    13
GPS BIIF-1  (PRN 25)    
1 36585C 10022A   23170.70645833  .00000000  00000-0  00000-0 0  1702
2 36585  54.5991 252.6840 0108700  59.7502  37.5239  2.00558066    15
GPS BIIF-2  (PRN 01)    
1 37753C 11036A   23170.70645833 -.00000000  00000-0  00000-0 0  1707
2 37753  56.7289  14.4359 0127112  55.2595 126.4762  2.00568251    13
GPS BIIF-3  (PRN 24)    
1 38833C 12053A   23170.70645833  .00000000  00000-0  00000-0 0  1706
2 38833  53.5152 188.3243 0137684  50.7699 144.4770  2.00566271    19
GPS BIIF-4  (PRN 27)    
1 39166C 13023A   23170.70645833  .00000000  00000-0  00000-0 0  1704
2 39166  55.4206 313.1876 0114186  41.6593 253.9498  2.00564852    10
GPS BIIF-5  (PRN 30)    
1 39533C 14008A   23170.70645833  .00000000  00000-0  00000-0 0  1706
2 39533  53.6032 193.8721 0066837 214.3658  82.0746  2.00574211    14
GPS BIIF-6  (PRN 06)    
1 39741C 14026A   23170.70645833 -.00000000  00000-0  00000-0 0  1708
2 39741  56.6834  13.9586 0028877 313.9526 139.8341  2.00562997    11
GPS BIIF-7  (PRN 09)    
1 40105C 14045A   23170.70645833 -.00000000  00000-0  00000-0 0  1705
2 40105  54.7904 132.1348 0021970 113.2248 275.6777  2.00572963    19
GPS BIIF-8  (PRN 03)    
1 40294C 14068A   23170.70645833 -.00000000  00000-0  00000-0 0  1709
2 40294  56.1111  73.4677 0047515  58.3595  60.4008  2.00566959    18
GPS BIIF-9  (PRN 26)    
1 40534C 15013A   23170.70645833  .00000000  00000-0  00000-0 0  1706
2 40534  53.4976 249.4690 0078178  25.0899 358.0474  2.00559492    18
GPS BIIF-10 (PRN 08)    
1 40730C 15033A   23170.70645833  .00000000  00000-0  00000-0 0  1706
2 40730  54.9104 311.8390 0084129  14.0950 252.6022  2.00559589    10
GPS BIIF-11 (PRN 10)    
1 41019C 15062A   23170.70645833 -.00000000  00000-0  00000-0 0  1700
2 41019  56.0957  73.3164 0086738 221.6989   4.8715  2.00562596    13
GPS BIIF-12 (PRN 32)    
1 41328C 16007A   23170.70645833 -.00000000  00000-0  00000-0 0  1703
2 41328  54.9969 132.8945 0071289 235.0341 286.6830  2.00554093    11
GPS BIII-1  (PRN 04)    
1 43873C 18109A   23170.70645833 -.00000000  00000-0  00000-0 0  1705
2 43873  55.1738 135.3933 0024461 194.4139 220.0481  2.00565817    13
GPS BIII-2  (PRN 18)    
1 44506C 19056A   23170.70645833 -.00000000  00000-0  00000-0 0  1701
2 44506  55.8057  14.4732 0033387 182.9238 132.2059  2.00564791    16
GPS BIII-3  (PRN 23)    
1 45854C 20041A   23170.70645833 -.00000000  00000-0  00000-0 0  1704
2 45854  55.8168  71.7513 0032691 186.2543  72.2541  2.00565566    12
GPS BIII-4  (PRN 14)    
1 46826C 20078A   23170.70645833  .00000000  00000-0  00000-0 0  1703
2 46826  54.3487 255.1798 0033282 192.1196  41.8993  2.00562857    13
GPS BIII-5  (PRN 11)    
1 48859C 21054A   23170.70645833 -.00000000  00000-0  00000-0 0  1707
2 48859  55.3209  16.2956 0009946 207.4004 206.7421  2.00553945    10
GPS BIII-6  (PRN 28)    
1 55268C 23009A   23170.70645833  .00000000  00000-0  00000-0 0  1700
2 55268  55.0942 191.4188 0004193 100.7713 358.3422  2.00560867    13
